# FY3D (LEO)
1 43010U 17072A   25217.55017488  .00000047  00000+0  43933-4 0  9996
2 43010  98.9663 182.0722 0000834 182.8845 177.2326 14.19630261400201

# FY3E (LEO)
1 49008U 21062A   25217.57552506  .00000004  00000+0  22393-4 0  9990
2 49008  98.7441 219.6145 0000478 297.5052  62.6075 14.19856652211796

# FY3F (LEO)
1 57490U 23111A   25217.56273491  .00000027  00000+0  33224-4 0  9993
2 57490  98.7243 287.8339 0000751  93.4821 266.6441 14.19849987104071

# FY3G (LEO)
1 56232U 23055A   25217.33525162  .00029289  00000+0  43553-3 0  9999
2 56232  49.9937 174.6230 0017914 332.6814  27.3210 15.54685001130917

# C2E1 (LEO)
1 44349U 19036L   25216.79230888  .00003300  00000+0  24570-3 0  9990
2 44349  24.0000   7.4926 0002576 212.1555 147.8789 14.98238963337180

# C2E2 (LEO)
1 44351U 19036N   25217.03617752  .00002893  00000+0  21231-3 0  9997
2 44351  23.9975 122.2431 0002244 261.1077  98.9171 14.98228009336151

# C2E3 (LEO)
1 44343U 19036E   25217.58533381  .00003972  00000+0  24275-3 0  9993
2 44343  23.9977 185.0010 0001150 121.9265 238.1350 15.06093426335543

# C2E4 (LEO)
1 44350U 19036M   25216.94666150  .00004139  00000+0  31294-3 0  9996
2 44350  23.9988  68.5243 0002833 229.1306 130.8950 14.98426510336620

# C2E5 (LEO)
1 44358U 19036V   25217.40279639  .00003176  00000+0  21427-3 0  9995
2 44358  23.9980 240.2194 0001745  53.3888 306.6775 15.01707420334967

# C2E6 (LEO)
1 44353U 19036Q   25217.43550972  .00003021  00000+0  22256-3 0  9995
2 44353  23.9986 300.3723 0002098 101.6601 258.4135 14.98276098334440

# G01 (GNSS)
1 62339U 24242A   25217.24903348 -.00000094  00000+0  00000+0 0  9999
2 62339  54.9622 346.9844 0006365 347.0445  14.2168  2.00559557  4923

# G02 (GNSS)
1 28474U 04045A   25217.22866907 -.00000093  00000+0  00000+0 0  9996
2 28474  55.3013 337.6139 0166335 304.9846  72.6459  2.00563717152095

# G03 (GNSS)
1 40294U 14068A   25217.32428257 -.00000036  00000+0  00000+0 0  9996
2 40294  56.7623  43.1477 0062028  68.6627 292.0535  2.00556963 78871

# G04 (GNSS)
1 43873U 18109A   25217.14895833 -.00000029  00000+0  00000+0 0  9992
2 43873  55.4893 104.6660 0034329 195.5198 336.2926  2.00572866 48732

# G05 (GNSS)
1 35752U 09043A   25217.53436102 -.00000041  00000+0  00000+0 0  9993
2 35752  56.0016  39.8739 0055627  80.3975 290.0328  2.00573121117035

# G06 (GNSS)
1 39741U 14026A   25217.36215220 -.00000092  00000+0  00000+0 0  9995
2 39741  56.6311 343.8068 0034886 318.4009  41.3424  2.00570674 82205

# G07 (GNSS)
1 32711U 08012A   25217.04313836  .00000011  00000+0  00000+0 0  9990
2 32711  54.4669 162.5496 0200317 243.8939 114.0091  2.00560164127419

# G08 (GNSS)
1 40730U 15033A   25216.62520725  .00000001  00000+0  00000+0 0  9990
2 40730  54.2364 280.1246 0104475  25.2136 335.3703  2.00572431 73641

# G09 (GNSS)
1 40105U 14045A   25216.95409935 -.00000031  00000+0  00000+0 0  9997
2 40105  55.1444 101.0782 0031370 116.1008 244.2818  2.00564524 79738

# G10 (GNSS)
1 41019U 15062A   25213.19186379 -.00000066  00000+0  00000+0 0  9997
2 41019  56.7348  43.1635 0104748 227.8792 131.2710  2.00567183 71413

# G11 (GNSS)
1 48859U 21054A   25217.40557612 -.00000093  00000+0  00000+0 0  9994
2 48859  55.3015 345.1460 0021679 226.0535 132.3087  2.00560851 30415

# G12 (GNSS)
1 29601U 06052A   25217.31962984  .00000091  00000+0  00000+0 0  9998
2 29601  55.0049 226.5296 0084612  86.8391 274.1728  2.00566073137079

# G13 (GNSS)
1 24876U 97035A   25217.10153715 -.00000029  00000+0  00000+0 0  9991
2 24876  55.8284 110.9410 0093661  55.3133 305.6124  2.00562669205613

# G14 (GNSS)
1 46826U 20078A   25217.25297681  .00000089  00000+0  00000+0 0  9995
2 46826  54.0499 223.5929 0061615 203.2520 213.9300  2.00567124 35175

# G15 (GNSS)
1 32260U 07047A   25217.12594249 -.00000030  00000+0  00000+0 0  9996
2 32260  53.8596  93.1133 0163375  82.6744 279.2477  2.00569960130477

# G16 (GNSS)
1 27663U 03005A   25217.11302971  .00000092  00000+0  00000+0 0  9992
2 27663  54.9615 227.5286 0142974  50.3632  23.5955  2.00551572164977

# G17 (GNSS)
1 28874U 05038A   25217.25106338 -.00000007  00000+0  00000+0 0  9996
2 28874  55.1389 285.9132 0133311 290.6172  67.3444  2.00556965145490

# G18 (GNSS)
1 44506U 19056A   25217.04815383 -.00000094  00000+0  00000+0 0  9991
2 44506  55.7681 343.7003 0055066 194.1781 162.3890  2.00563166 43720

# G19 (GNSS)
1 28190U 04009A   25217.38711521 -.00000012  00000+0  00000+0 0  9990
2 28190  55.0939 288.4316 0106988 163.7322 269.3963  2.00565848156616

# G20 (GNSS)
1 26360U 00025A   25217.48923939 -.00000052  00000+0  00000+0 0  9994
2 26360  54.9689  32.0618 0035887 232.8716 135.5514  2.00577668184941

# G21 (GNSS)
1 64202U 25116A   25216.48488144 -.00000046  00000+0  00000+0 0  9995
2 64202  55.0090  43.8992 0001407 307.5116  52.5177  2.00567700  1516

# G22 (GNSS)
1 26407U 00040A   25217.45969894  .00000091  00000+0  00000+0 0  9992
2 26407  54.9273 227.7047 0132202 299.2124 249.6326  2.00566525183611

# G23 (GNSS)
1 45854U 20041A   25217.12536233 -.00000040  00000+0  00000+0 0  9998
2 45854  56.4549  41.2306 0055678 199.1238 157.9187  2.00565503 37690

# G24 (GNSS)
1 38833U 12053A   25217.22183710  .00000000  00000+0  00000+0 0  9995
2 38833  53.5427 156.5423 0168956  61.4805 300.1850  2.00563630 93103

# G25 (GNSS)
1 36585U 10022A   25217.35928395  .00000089  00000+0  00000+0 0  9998
2 36585  54.3310 221.2865 0121027  64.1130 300.9107  2.00572543111268

# G26 (GNSS)
1 40534U 15013A   25216.96135934  .00000086  00000+0  00000+0 0  9994
2 40534  53.2284 217.2588 0100303  35.5026 325.1871  2.00570297 75486

# G27 (GNSS)
1 39166U 13023A   25217.08588352  .00000001  00000+0  00000+0 0  9999
2 39166  54.7565 281.8369 0132729  48.1542 313.0486  2.00565841 89546

# G28 (GNSS)
1 55268U 23009A   25217.34732390  .00000008  00000+0  00000+0 0  9994
2 55268  55.0985 160.9265 0003753 335.6809  20.6586  2.00565688 18906

# G29 (GNSS)
1 32384U 07062A   25215.96466226 -.00000021  00000+0  00000+0 0  9993
2 32384  55.2883 286.8903 0032654 161.3801 208.5883  2.00570980129152

# G30 (GNSS)
1 39533U 14008A   25217.08395956  .00000009  00000+0  00000+0 0  9995
2 39533  53.6195 162.2111 0078670 226.3484 132.9728  2.00566705 83346

# G31 (GNSS)
1 29486U 06042A   25216.90779863  .00000013  00000+0  00000+0 0  9998
2 29486  54.6872 163.8913 0105127  47.8445 323.9980  2.00559783138209

# G32 (GNSS)
1 41328U 16007A   25217.26226709 -.00000027  00000+0  00000+0 0  9991
2 41328  55.3258 101.9971 0088035 242.7196 116.4408  2.00567287 69502

# C06 (GNSS)
1 36828U 10036A   25217.28066696 -.00000119  00000+0  00000+0 0  9997
2 36828  54.2813 165.8212 0048975 217.5524 138.7319  1.00262878 54922

# C04 (GNSS)
1 37210U 10057A   25217.60720036 -.00000106  00000+0  00000+0 0  9993
2 37210   2.8587  70.3699 0005824 165.5631  97.0582  1.00273434 54122

# C07 (GNSS)
1 37256U 10068A   25217.58834771 -.00000157  00000+0  00000+0 0  9990
2 37256  48.1153 275.7431 0048437 215.3290 143.0854  1.00274056 53620

# C14 (GNSS)
1 38775U 12050B   25217.10111813 -.00000026  00000+0  00000+0 0  9998
2 38775  56.2620  73.3673 0012296 356.0897   3.9812  1.86231144 87424

# C01 (GNSS)
1 44231U 19027A   25217.60169558 -.00000241  00000+0  00000+0 0  9996
2 44231   1.8116  75.2200 0003413 249.6839 350.6650  1.00272870 22917

# C24 (GNSS)
1 43582U 18062B   25215.09296312  .00000079  00000+0  00000+0 0  9990
2 43582  54.0994 193.1076 0005131   6.2998 353.6942  1.86229868 47717

# C26 (GNSS)
1 43602U 18067A   25215.02928800  .00000077  00000+0  00000+0 0  9993
2 43602  54.1932 191.8288 0007529  25.0102 335.0123  1.86227805 47198

# C25 (GNSS)
1 43603U 18067B   25215.16346090  .00000077  00000+0  00000+0 0  9994
2 43603  54.1903 191.7885 0004381   8.8371 351.1565  1.86227307 47229

# C32 (GNSS)
1 43622U 18072A   25216.73249672 -.00000029  00000+0  00000+0 0  9991
2 43622  56.3421  73.1237 0005165 326.5761  33.4702  1.86231494 46760

# C33 (GNSS)
1 43623U 18072B   25215.52405757 -.00000042  00000+0  00000+0 0  9991
2 43623  56.3430  73.1576 0004611   9.2293 350.8536  1.86231508 46731

# C35 (GNSS)
1 43647U 18078A   25217.29424530 -.00000069  00000+0  00000+0 0  9998
2 43647  54.3748 311.0458 0006068  29.1392 330.9387  1.86232378 46277

# C34 (GNSS)
1 43648U 18078B   25216.34954934 -.00000077  00000+0  00000+0 0  9999
2 43648  54.3715 311.0801 0002907  45.9069 314.1584  1.86232474 46280

# C59 (GNSS)
1 43683U 18085A   25217.59975785 -.00000274  00000+0  00000+0 0  9990
2 43683   2.7848 106.7214 0004226   3.1663 200.3348  1.00266378 24895

# C36 (GNSS)
1 43706U 18093A   25217.04265352  .00000067  00000+0  00000+0 0  9996
2 43706  54.1834 193.0212 0010064 288.7237  71.1504  1.86228480 45650

# C37 (GNSS)
1 43707U 18093B   25212.07207974  .00000075  00000+0  00000+0 0  9990
2 43707  54.1841 193.1813 0008208 315.4999  44.4161  1.86230112 45553

# C38 (GNSS)
1 44204U 19023A   25216.42555722 -.00000188  00000+0  00000+0 0  9993
2 44204  58.2475  40.9194 0024252 215.2771 329.0647  1.00283645  4031

# C39 (GNSS)
1 44337U 19035A   25216.75322611 -.00000133  00000+0  00000+0 0  9998
2 44337  55.2166 161.6442 0035339 210.0832 331.1437  1.00256005 22499

# C46 (GNSS)
1 44542U 19061A   25213.75413906  .00000083  00000+0  00000+0 0  9993
2 44542  54.4112 193.5003 0008401 352.7060   7.2688  1.86229413 39846

# C45 (GNSS)
1 44543U 19061B   25214.95540703  .00000081  00000+0  00000+0 0  9991
2 44543  54.4096 193.4283 0005801 333.6798  24.4558  1.86229633 39867

# C40 (GNSS)
1 44709U 19073A   25216.58940097 -.00000162  00000+0  00000+0 0  9990
2 44709  55.3412 284.3197 0045583 190.1881 169.8312  1.00283973 21289

# C44 (GNSS)
1 44793U 19078A   25216.28068036 -.00000077  00000+0  00000+0 0  9994
2 44793  54.2225 310.9624 0004942  39.4500 320.6273  1.86232329 38745

# C43 (GNSS)
1 44794U 19078B   25216.41531951 -.00000076  00000+0  00000+0 0  9990
2 44794  54.1958 310.9252 0002911  33.8409 326.2194  1.86227921 38752
